{"fetched_at":"2026-07-11T09:24:00.837Z","source":"https://celestrak.org/NORAD/elements/gp.php?GROUP=spire&FORMAT=JSON","constellation":"spire","records":[{"OBJECT_NAME":"LEMUR-2-VALHALLA","OBJECT_ID":"2024-022B","EPOCH":"2026-07-11T01:13:35.776128","CLASSIFICATION_TYPE":"U","MEAN_MOTION":15.40403861,"ECCENTRICITY":0.0009659,"INCLINATION":97.4092,"RA_OF_ASC_NODE":42.3393,"ARG_OF_PERICENTER":37.92,"MEAN_ANOMALY":322.2724,"EPHEMERIS_TYPE":0,"NORAD_CAT_ID":58900,"ELEMENT_SET_NO":999,"REV_AT_EPOCH":13594,"BSTAR":0.0002573,"MEAN_MOTION_DOT":0.00010335,"MEAN_MOTION_DDOT":0},{"OBJECT_NAME":"LEMUR-2-CAEL","OBJECT_ID":"2024-022E","EPOCH":"2026-07-09T13:08:31.439904","CLASSIFICATION_TYPE":"U","MEAN_MOTION":15.41725396,"ECCENTRICITY":0.00077567,"INCLINATION":97.4076,"RA_OF_ASC_NODE":41.7924,"ARG_OF_PERICENTER":28.9089,"MEAN_ANOMALY":331.2586,"EPHEMERIS_TYPE":0,"NORAD_CAT_ID":58903,"ELEMENT_SET_NO":999,"REV_AT_EPOCH":13578,"BSTAR":0.00031637064,"MEAN_MOTION_DOT":0.00013295,"MEAN_MOTION_DDOT":0},{"OBJECT_NAME":"LEMUR-2-JOHNNYTRUONG","OBJECT_ID":"2024-043BA","EPOCH":"2026-07-09T09:21:06.778656","CLASSIFICATION_TYPE":"U","MEAN_MOTION":15.62219537,"ECCENTRICITY":0.00043473,"INCLINATION":97.5385,"RA_OF_ASC_NODE":343.4983,"ARG_OF_PERICENTER":109.9411,"MEAN_ANOMALY":250.2315,"EPHEMERIS_TYPE":0,"NORAD_CAT_ID":59146,"ELEMENT_SET_NO":999,"REV_AT_EPOCH":13150,"BSTAR":0.0003921649,"MEAN_MOTION_DOT":0.00034473,"MEAN_MOTION_DDOT":0},{"OBJECT_NAME":"LEMUR-2-TOMATOKECHUP","OBJECT_ID":"2024-149D","EPOCH":"2026-07-10T03:57:48.083904","CLASSIFICATION_TYPE":"U","MEAN_MOTION":15.36515487,"ECCENTRICITY":0.00030486,"INCLINATION":97.3795,"RA_OF_ASC_NODE":273.2768,"ARG_OF_PERICENTER":131.796,"MEAN_ANOMALY":228.3545,"EPHEMERIS_TYPE":0,"NORAD_CAT_ID":60471,"ELEMENT_SET_NO":999,"REV_AT_EPOCH":10569,"BSTAR":0.00023403615,"MEAN_MOTION_DOT":0.00008259,"MEAN_MOTION_DDOT":0},{"OBJECT_NAME":"LEMUR-2-STELLA","OBJECT_ID":"2024-149BT","EPOCH":"2026-07-11T04:04:52.847040","CLASSIFICATION_TYPE":"U","MEAN_MOTION":15.12319994,"ECCENTRICITY":0.0001088,"INCLINATION":97.6738,"RA_OF_ASC_NODE":274.7368,"ARG_OF_PERICENTER":114.5657,"MEAN_ANOMALY":245.5687,"EPHEMERIS_TYPE":0,"NORAD_CAT_ID":60533,"ELEMENT_SET_NO":999,"REV_AT_EPOCH":10412,"BSTAR":0.00040208,"MEAN_MOTION_DOT":0.000069,"MEAN_MOTION_DDOT":0},{"OBJECT_NAME":"LEMUR-2-MARHISYAM","OBJECT_ID":"2024-149BW","EPOCH":"2026-07-10T03:59:47.651136","CLASSIFICATION_TYPE":"U","MEAN_MOTION":15.11717897,"ECCENTRICITY":0.00028183,"INCLINATION":97.688,"RA_OF_ASC_NODE":274.2005,"ARG_OF_PERICENTER":77.1938,"MEAN_ANOMALY":282.9606,"EPHEMERIS_TYPE":0,"NORAD_CAT_ID":60536,"ELEMENT_SET_NO":999,"REV_AT_EPOCH":10395,"BSTAR":0.00046249155,"MEAN_MOTION_DOT":0.00007816,"MEAN_MOTION_DDOT":0},{"OBJECT_NAME":"LEMUR-2-AHMED-ASRAR","OBJECT_ID":"2024-149DN","EPOCH":"2026-07-10T04:16:27.563520","CLASSIFICATION_TYPE":"U","MEAN_MOTION":15.1323887,"ECCENTRICITY":0.00007304,"INCLINATION":97.7004,"RA_OF_ASC_NODE":276.3951,"ARG_OF_PERICENTER":234.1758,"MEAN_ANOMALY":125.9404,"EPHEMERIS_TYPE":0,"NORAD_CAT_ID":60576,"ELEMENT_SET_NO":999,"REV_AT_EPOCH":10404,"BSTAR":0.0004994243,"MEAN_MOTION_DOT":0.00008812,"MEAN_MOTION_DDOT":0},{"OBJECT_NAME":"LEMUR-2-LLOYD","OBJECT_ID":"2024-149DP","EPOCH":"2026-07-11T04:07:32.346624","CLASSIFICATION_TYPE":"U","MEAN_MOTION":15.09703583,"ECCENTRICITY":0.0004734,"INCLINATION":97.6747,"RA_OF_ASC_NODE":273.3196,"ARG_OF_PERICENTER":80.8597,"MEAN_ANOMALY":279.3167,"EPHEMERIS_TYPE":0,"NORAD_CAT_ID":60577,"ELEMENT_SET_NO":999,"REV_AT_EPOCH":10401,"BSTAR":0.00040523,"MEAN_MOTION_DOT":0.00006469,"MEAN_MOTION_DDOT":0},{"OBJECT_NAME":"LEMUR-2-SQUIRRELCOMM","OBJECT_ID":"2024-149DQ","EPOCH":"2026-07-08T00:49:41.985408","CLASSIFICATION_TYPE":"U","MEAN_MOTION":15.07397331,"ECCENTRICITY":0.00047468,"INCLINATION":97.6707,"RA_OF_ASC_NODE":269.8822,"ARG_OF_PERICENTER":354.4134,"MEAN_ANOMALY":5.7039,"EPHEMERIS_TYPE":0,"NORAD_CAT_ID":60578,"ELEMENT_SET_NO":999,"REV_AT_EPOCH":10354,"BSTAR":0.00024740327,"MEAN_MOTION_DOT":0.00003681,"MEAN_MOTION_DDOT":0},{"OBJECT_NAME":"LEMUR-2-SIERRINI","OBJECT_ID":"2024-149DR","EPOCH":"2026-07-10T23:44:06.029088","CLASSIFICATION_TYPE":"U","MEAN_MOTION":15.11454053,"ECCENTRICITY":0.000638,"INCLINATION":97.6838,"RA_OF_ASC_NODE":274.6929,"ARG_OF_PERICENTER":101.6319,"MEAN_ANOMALY":258.5627,"EPHEMERIS_TYPE":0,"NORAD_CAT_ID":60579,"ELEMENT_SET_NO":999,"REV_AT_EPOCH":10405,"BSTAR":0.00042017,"MEAN_MOTION_DOT":0.00007045,"MEAN_MOTION_DDOT":0},{"OBJECT_NAME":"LEMUR-2-WILSON","OBJECT_ID":"2025-009CP","EPOCH":"2026-07-09T04:17:57.532704","CLASSIFICATION_TYPE":"U","MEAN_MOTION":14.95266051,"ECCENTRICITY":0.00024383,"INCLINATION":97.7024,"RA_OF_ASC_NODE":268.2582,"ARG_OF_PERICENTER":357.7647,"MEAN_ANOMALY":2.3562,"EPHEMERIS_TYPE":0,"NORAD_CAT_ID":62694,"ELEMENT_SET_NO":999,"REV_AT_EPOCH":8064,"BSTAR":0.0001489224,"MEAN_MOTION_DOT":0.00001582,"MEAN_MOTION_DDOT":0},{"OBJECT_NAME":"LEMUR-2-STAR-FOX","OBJECT_ID":"2025-009CR","EPOCH":"2026-07-11T04:45:47.560032","CLASSIFICATION_TYPE":"U","MEAN_MOTION":15.02812178,"ECCENTRICITY":0.0002776,"INCLINATION":97.6922,"RA_OF_ASC_NODE":273.6357,"ARG_OF_PERICENTER":57.6752,"MEAN_ANOMALY":302.4741,"EPHEMERIS_TYPE":0,"NORAD_CAT_ID":62696,"ELEMENT_SET_NO":999,"REV_AT_EPOCH":8116,"BSTAR":0.00026429,"MEAN_MOTION_DOT":0.00003478,"MEAN_MOTION_DDOT":0},{"OBJECT_NAME":"LEMUR-2-ARIANNA","OBJECT_ID":"2025-009CU","EPOCH":"2026-07-11T04:43:35.271264","CLASSIFICATION_TYPE":"U","MEAN_MOTION":15.02812628,"ECCENTRICITY":0.0003031,"INCLINATION":97.686,"RA_OF_ASC_NODE":273.3895,"ARG_OF_PERICENTER":62.8427,"MEAN_ANOMALY":297.3107,"EPHEMERIS_TYPE":0,"NORAD_CAT_ID":62699,"ELEMENT_SET_NO":999,"REV_AT_EPOCH":8116,"BSTAR":0.00027917,"MEAN_MOTION_DOT":0.00003677,"MEAN_MOTION_DDOT":0},{"OBJECT_NAME":"LEMUR-2-ALISIA","OBJECT_ID":"2025-009DB","EPOCH":"2026-07-11T04:05:03.171840","CLASSIFICATION_TYPE":"U","MEAN_MOTION":15.03137168,"ECCENTRICITY":0.0003798,"INCLINATION":97.6969,"RA_OF_ASC_NODE":274.1792,"ARG_OF_PERICENTER":141.7275,"MEAN_ANOMALY":218.422,"EPHEMERIS_TYPE":0,"NORAD_CAT_ID":62706,"ELEMENT_SET_NO":999,"REV_AT_EPOCH":10376,"BSTAR":0.00037831,"MEAN_MOTION_DOT":0.00005049,"MEAN_MOTION_DDOT":0},{"OBJECT_NAME":"LEMUR-2-ROUNDTRIPPER","OBJECT_ID":"2025-009DG","EPOCH":"2026-07-11T04:16:35.526144","CLASSIFICATION_TYPE":"U","MEAN_MOTION":15.04189188,"ECCENTRICITY":0.0004386,"INCLINATION":97.7243,"RA_OF_ASC_NODE":274.8263,"ARG_OF_PERICENTER":72.6787,"MEAN_ANOMALY":287.4918,"EPHEMERIS_TYPE":0,"NORAD_CAT_ID":62711,"ELEMENT_SET_NO":999,"REV_AT_EPOCH":8123,"BSTAR":0.00041354,"MEAN_MOTION_DOT":0.00005683,"MEAN_MOTION_DDOT":0},{"OBJECT_NAME":"LEMUR-2-MYNAMEISJEFF","OBJECT_ID":"2025-009DH","EPOCH":"2026-07-10T01:05:53.473920","CLASSIFICATION_TYPE":"U","MEAN_MOTION":15.04168528,"ECCENTRICITY":0.0003672,"INCLINATION":97.7289,"RA_OF_ASC_NODE":274.09,"ARG_OF_PERICENTER":109.4233,"MEAN_ANOMALY":250.7389,"EPHEMERIS_TYPE":0,"NORAD_CAT_ID":62712,"ELEMENT_SET_NO":999,"REV_AT_EPOCH":8106,"BSTAR":0.00048907697,"MEAN_MOTION_DOT":0.00006729,"MEAN_MOTION_DDOT":0}]}
